start=new Date('2022-05-10T00:00:00.000Z').valueOf();
sats=[{"INCLINATION":"53.0549","ECCENTRICITY":"0.00022540","BSTAR":"-0.00885650000000","PERIAPSIS":"551.114","SEMIMAJOR_AXIS":"6930.811","MEAN_MOTION_DDOT":"0.0000000000000","REV_AT_EPOCH":"5752","NORAD_CAT_ID":"48395","APOAPSIS":"554.238","FILE":"3438010","MEAN_ANOMALY":"311.5862","CENTER_NAME":"EARTH","EPHEMERIS_TYPE":"0","TIME_SYSTEM":"UTC","TLE_LINE1":"1 48395U 21038AU  22129.76368675 -.00123857  00000-0 -88565-2 0  9999","RA_OF_ASC_NODE":"146.1623","LAUNCH_DATE":"2021-05-04","SITE":"AFETR","OBJECT_NAME":"STARLINK-2574","REF_FRAME":"TEME","TLE_LINE2":"2 48395  53.0549 146.1623 0002254  48.5320 311.5862 15.04619485 57523","OBJECT_ID":"2021-038AU","COUNTRY_CODE":"US","EPOCH":"2022-05-09T18:19:42.535200","MEAN_MOTION":"15.04619485","ARG_OF_PERICENTER":"48.5320","ELEMENT_SET_NO":"999","OBJECT_TYPE":"PAYLOAD","DECAY_DATE":null,"MEAN_ELEMENT_THEORY":"SGP4","CLASSIFICATION_TYPE":"U","GP_ID":"203142070","RCS_SIZE":"LARGE","MEAN_MOTION_DOT":"-0.00123857","PERIOD":"95.705"},{"TLE_LINE2":"2 48396  53.0545 146.0991 0002265  46.1701 313.9475 15.06407392 57526","REF_FRAME":"TEME","LAUNCH_DATE":"2021-05-04","SITE":"AFETR","OBJECT_NAME":"STARLINK-2575","OBJECT_ID":"2021-038AV","EPOCH":"2022-05-09T18:32:46.521024","COUNTRY_CODE":"US","ELEMENT_SET_NO":"999","ARG_OF_PERICENTER":"46.1701","MEAN_MOTION":"15.06407392","OBJECT_TYPE":"PAYLOAD","DECAY_DATE":null,"GP_ID":"203140833","CLASSIFICATION_TYPE":"U","MEAN_ELEMENT_THEORY":"SGP4","PERIOD":"95.592","MEAN_MOTION_DOT":"0.00001246","RCS_SIZE":"LARGE","INCLINATION":"53.0545","ECCENTRICITY":"0.00022650","PERIAPSIS":"545.622","SEMIMAJOR_AXIS":"6925.326","BSTAR":"0.00010253000000","MEAN_MOTION_DDOT":"0.0000000000000","NORAD_CAT_ID":"48396","APOAPSIS":"548.759","REV_AT_EPOCH":"5752","FILE":"3438010","TIME_SYSTEM":"UTC","EPHEMERIS_TYPE":"0","CENTER_NAME":"EARTH","MEAN_ANOMALY":"313.9475","RA_OF_ASC_NODE":"146.0991","TLE_LINE1":"1 48396U 21038AV  22129.77276066  .00001246  00000-0  10253-3 0  9998"},{"TLE_LINE1":"1 48397U 21038AW  22129.76908080  .00001608  00000-0  12680-3 0  9994","RA_OF_ASC_NODE":"146.1128","CENTER_NAME":"EARTH","MEAN_ANOMALY":"305.4068","TIME_SYSTEM":"UTC","EPHEMERIS_TYPE":"0","FILE":"3438010","REV_AT_EPOCH":"5752","APOAPSIS":"548.305","NORAD_CAT_ID":"48397","MEAN_MOTION_DDOT":"0.0000000000000","BSTAR":"0.00012680000000","PERIAPSIS":"546.130","SEMIMAJOR_AXIS":"6925.353","ECCENTRICITY":"0.00015700","INCLINATION":"53.0543","RCS_SIZE":"LARGE","MEAN_MOTION_DOT":"0.00001608","PERIOD":"95.592","CLASSIFICATION_TYPE":"U","MEAN_ELEMENT_THEORY":"SGP4","GP_ID":"203141080","OBJECT_TYPE":"PAYLOAD","DECAY_DATE":null,"ELEMENT_SET_NO":"999","MEAN_MOTION":"15.06398660","ARG_OF_PERICENTER":"54.7067","EPOCH":"2022-05-09T18:27:28.581120","COUNTRY_CODE":"US","OBJECT_ID":"2021-038AW","REF_FRAME":"TEME","SITE":"AFETR","LAUNCH_DATE":"2021-05-04","OBJECT_NAME":"STARLINK-2590","TLE_LINE2":"2 48397  53.0543 146.1128 0001570  54.7067 305.4068 15.06398660 57527"},{"MEAN_ANOMALY":"314.4529","CENTER_NAME":"EARTH","EPHEMERIS_TYPE":"0","TIME_SYSTEM":"UTC","TLE_LINE1":"1 48398U 21038AX  22129.43366571 -.00000238  00000-0  29592-5 0  9993","RA_OF_ASC_NODE":"147.6160","REV_AT_EPOCH":"5747","NORAD_CAT_ID":"48398","APOAPSIS":"548.677","FILE":"3437431","BSTAR":"0.00000295920000","SEMIMAJOR_AXIS":"6925.370","PERIAPSIS":"545.792","MEAN_MOTION_DDOT":"0.0000000000000","INCLINATION":"53.0532","ECCENTRICITY":"0.00020830","MEAN_ELEMENT_THEORY":"SGP4","CLASSIFICATION_TYPE":"U","GP_ID":"203102025","RCS_SIZE":"LARGE","MEAN_MOTION_DOT":"-0.00000238","PERIOD":"95.593","ARG_OF_PERICENTER":"45.6631","MEAN_MOTION":"15.06393084","ELEMENT_SET_NO":"999","OBJECT_TYPE":"PAYLOAD","DECAY_DATE":null,"OBJECT_ID":"2021-038AX","COUNTRY_CODE":"US","EPOCH":"2022-05-09T10:24:28.717344","OBJECT_NAME":"STARLINK-2588","SITE":"AFETR","LAUNCH_DATE":"2021-05-04","REF_FRAME":"TEME","TLE_LINE2":"2 48398  53.0532 147.6160 0002083  45.6631 314.4529 15.06393084 57475"},{"MEAN_MOTION_DDOT":"0.0000000000000","BSTAR":"0.00009185900000","PERIAPSIS":"545.754","SEMIMAJOR_AXIS":"6925.351","ECCENTRICITY":"0.00021110","INCLINATION":"53.0546","TLE_LINE1":"1 48399U 21038AY  22129.76170377  .00001087  00000-0  91859-4 0  9993","RA_OF_ASC_NODE":"146.1491","CENTER_NAME":"EARTH","MEAN_ANOMALY":"319.0466","TIME_SYSTEM":"UTC","EPHEMERIS_TYPE":"0","FILE":"3438010","REV_AT_EPOCH":"5751","APOAPSIS":"548.678","NORAD_CAT_ID":"48399","EPOCH":"2022-05-09T18:16:51.205728","COUNTRY_CODE":"US","OBJECT_ID":"2021-038AY","REF_FRAME":"TEME","LAUNCH_DATE":"2021-05-04","SITE":"AFETR","OBJECT_NAME":"STARLINK-2587","TLE_LINE2":"2 48399  53.0546 146.1491 0002111  41.0682 319.0466 15.06399072 57519","RCS_SIZE":"LARGE","MEAN_MOTION_DOT":"0.00001087","PERIOD":"95.592","CLASSIFICATION_TYPE":"U","MEAN_ELEMENT_THEORY":"SGP4","GP_ID":"203142570","OBJECT_TYPE":"PAYLOAD","DECAY_DATE":null,"ELEMENT_SET_NO":"999","ARG_OF_PERICENTER":"41.0682","MEAN_MOTION":"15.06399072"},{"REV_AT_EPOCH":"5630","APOAPSIS":"548.680","NORAD_CAT_ID":"48400","FILE":"3438010","CENTER_NAME":"EARTH","MEAN_ANOMALY":"319.9130","TIME_SYSTEM":"UTC","EPHEMERIS_TYPE":"0","TLE_LINE1":"1 48400U 21038AZ  22129.75802456 -.00000112  00000-0  11429-4 0  9999","RA_OF_ASC_NODE":"146.1683","INCLINATION":"53.0538","ECCENTRICITY":"0.00021030","BSTAR":"0.00001142900000","PERIAPSIS":"545.768","SEMIMAJOR_AXIS":"6925.359","MEAN_MOTION_DDOT":"0.0000000000000","ELEMENT_SET_NO":"999","MEAN_MOTION":"15.06396599","ARG_OF_PERICENTER":"40.2015","DECAY_DATE":null,"OBJECT_TYPE":"PAYLOAD","CLASSIFICATION_TYPE":"U","MEAN_ELEMENT_THEORY":"SGP4","GP_ID":"203141332","RCS_SIZE":"LARGE","MEAN_MOTION_DOT":"-0.00000112","PERIOD":"95.592","REF_FRAME":"TEME","OBJECT_NAME":"STARLINK-2576","SITE":"AFETR","LAUNCH_DATE":"2021-05-04","TLE_LINE2":"2 48400  53.0538 146.1683 0002103  40.2015 319.9130 15.06396599 56302","OBJECT_ID":"2021-038AZ","EPOCH":"2022-05-09T18:11:33.321984","COUNTRY_CODE":"US"},{"PERIOD":"95.608","MEAN_MOTION_DOT":"0.00020615","RCS_SIZE":"LARGE","GP_ID":"203141579","CLASSIFICATION_TYPE":"U","MEAN_ELEMENT_THEORY":"SGP4","OBJECT_TYPE":"PAYLOAD","DECAY_DATE":null,"ELEMENT_SET_NO":"999","MEAN_MOTION":"15.06142493","ARG_OF_PERICENTER":"38.8494","EPOCH":"2022-05-09T15:53:14.994240","COUNTRY_CODE":"US","OBJECT_ID":"2021-038BA","TLE_LINE2":"2 48401  53.0571 146.6038 0001316  38.8494 321.2589 15.06142493 56281","REF_FRAME":"TEME","OBJECT_NAME":"STARLINK-2571","SITE":"AFETR","LAUNCH_DATE":"2021-05-04","RA_OF_ASC_NODE":"146.6038","TLE_LINE1":"1 48401U 21038BA  22129.66197910  .00020615  00000-0  14085-2 0  9990","TIME_SYSTEM":"UTC","EPHEMERIS_TYPE":"0","CENTER_NAME":"EARTH","MEAN_ANOMALY":"321.2589","FILE":"3438010","NORAD_CAT_ID":"48401","APOAPSIS":"548.914","REV_AT_EPOCH":"5628","MEAN_MOTION_DDOT":"0.0000000000000","SEMIMAJOR_AXIS":"6926.138","PERIAPSIS":"547.091","BSTAR":"0.00140850000000","ECCENTRICITY":"0.00013160","INCLINATION":"53.0571"},{"ARG_OF_PERICENTER":"43.8006","MEAN_MOTION":"15.06407574","ELEMENT_SET_NO":"999","OBJECT_TYPE":"PAYLOAD","DECAY_DATE":null,"MEAN_ELEMENT_THEORY":"SGP4","CLASSIFICATION_TYPE":"U","GP_ID":"203142333","RCS_SIZE":"LARGE","MEAN_MOTION_DOT":"0.00000297","PERIOD":"95.592","SITE":"AFETR","OBJECT_NAME":"STARLINK-2560","LAUNCH_DATE":"2021-05-04","REF_FRAME":"TEME","TLE_LINE2":"2 48402  53.0542 146.1808 0001845  43.8006 316.3129 15.06407574 56304","OBJECT_ID":"2021-038BB","COUNTRY_CODE":"US","EPOCH":"2022-05-09T18:06:13.607424","REV_AT_EPOCH":"5630","APOAPSIS":"548.468","NORAD_CAT_ID":"48402","FILE":"3438010","MEAN_ANOMALY":"316.3129","CENTER_NAME":"EARTH","EPHEMERIS_TYPE":"0","TIME_SYSTEM":"UTC","TLE_LINE1":"1 48402U 21038BB  22129.75432416  .00000297  00000-0  38839-4 0  9993","RA_OF_ASC_NODE":"146.1808","INCLINATION":"53.0542","ECCENTRICITY":"0.00018450","BSTAR":"0.00003883900000","PERIAPSIS":"545.913","SEMIMAJOR_AXIS":"6925.325","MEAN_MOTION_DDOT":"0.0000000000000"},{"CENTER_NAME":"EARTH","MEAN_ANOMALY":"312.7646","TIME_SYSTEM":"UTC","EPHEMERIS_TYPE":"0","TLE_LINE1":"1 48403U 21038BC  22129.75064654  .00001387  00000-0  11204-3 0  9996","RA_OF_ASC_NODE":"146.1902","REV_AT_EPOCH":"5630","NORAD_CAT_ID":"48403","APOAPSIS":"548.700","FILE":"3438010","BSTAR":"0.00011204000000","SEMIMAJOR_AXIS":"6925.354","PERIAPSIS":"545.738","MEAN_MOTION_DDOT":"0.0000000000000","INCLINATION":"53.0550","ECCENTRICITY":"0.00021390","CLASSIFICATION_TYPE":"U","MEAN_ELEMENT_THEORY":"SGP4","GP_ID":"203142071","RCS_SIZE":"LARGE","MEAN_MOTION_DOT":"0.00001387","PERIOD":"95.592","ELEMENT_SET_NO":"999","MEAN_MOTION":"15.06398258","ARG_OF_PERICENTER":"47.3522","OBJECT_TYPE":"PAYLOAD","DECAY_DATE":null,"OBJECT_ID":"2021-038BC","EPOCH":"2022-05-09T18:00:55.861056","COUNTRY_CODE":"US","REF_FRAME":"TEME","SITE":"AFETR","LAUNCH_DATE":"2021-05-04","OBJECT_NAME":"STARLINK-2561","TLE_LINE2":"2 48403  53.0550 146.1902 0002139  47.3522 312.7646 15.06398258 56300"},{"MEAN_MOTION_DDOT":"0.0000000000000","BSTAR":"0.00001939400000","PERIAPSIS":"545.960","SEMIMAJOR_AXIS":"6925.384","ECCENTRICITY":"0.00018610","INCLINATION":"53.0542","TLE_LINE1":"1 48404U 21038BD  22129.74697262  .00000007  00000-0  19394-4 0  9990","RA_OF_ASC_NODE":"146.2135","CENTER_NAME":"EARTH","MEAN_ANOMALY":"312.6371","TIME_SYSTEM":"UTC","EPHEMERIS_TYPE":"0","FILE":"3438010","REV_AT_EPOCH":"5630","APOAPSIS":"548.538","NORAD_CAT_ID":"48404","EPOCH":"2022-05-09T17:55:38.434368","COUNTRY_CODE":"US","OBJECT_ID":"2021-038BD","REF_FRAME":"TEME","OBJECT_NAME":"STARLINK-2593","SITE":"AFETR","LAUNCH_DATE":"2021-05-04","TLE_LINE2":"2 48404  53.0542 146.2135 0001861  47.4775 312.6371 15.06388341 56309","RCS_SIZE":"LARGE","MEAN_MOTION_DOT":"0.00000007","PERIOD":"95.593","CLASSIFICATION_TYPE":"U","MEAN_ELEMENT_THEORY":"SGP4","GP_ID":"203140834","OBJECT_TYPE":"PAYLOAD","DECAY_DATE":null,"ELEMENT_SET_NO":"999","ARG_OF_PERICENTER":"47.4775","MEAN_MOTION":"15.06388341"}];
